[
  {
    "OBJECT_NAME": "SL-3 R/B",
    "OBJECT_ID": "1982-079B",
    "EPOCH": "2026-07-23T15:23:08.579328",
    "MEAN_MOTION": 15.26073977,
    "ECCENTRICITY": 0.0024769,
    "INCLINATION": 81.1452,
    "RA_OF_ASC_NODE": 32.3542,
    "ARG_OF_PERICENTER": 66.2151,
    "MEAN_ANOMALY": 294.1677,
    "EPHEMERIS_TYPE": 0,
    "CLASSIFICATION_TYPE": "U",
    "NORAD_CAT_ID": 13403,
    "ELEMENT_SET_NO": 999,
    "REV_AT_EPOCH": 39842,
    "BSTAR": 0.00017917,
    "MEAN_MOTION_DOT": 0.00004683,
    "MEAN_MOTION_DDOT": 0
  }
]
